IRIDIUM 33 DEB          
1 34643U 97051JU  24158.28774382  .00336389  00000+0  13085-1 0  9992
2 34643  86.3467 245.1069 0021847 218.5491 141.4195 15.24363863804036
IRIDIUM 33 DEB          
1 34648U 97051JZ  24157.91659816  .00005188  00000+0  30622-2 0  9997
2 34648  86.4105 143.1089 0211874 226.2788 132.0674 13.97111086771684
IRIDIUM 33 DEB          
1 34651U 97051KC  24157.32929947  .00007577  00000+0  35012-2 0  9993
2 34651  86.2899  14.7225 0172142 173.5007 186.8470 14.13279996780116
IRIDIUM 33 DEB          
1 34652U 97051KD  24158.47804610  .00005412  00000+0  12774-2 0  9996
2 34652  86.3370 225.0861 0032850  17.2654 353.2161 14.53737939804796
IRIDIUM 33 DEB          
1 34690U 97051KM  24157.59020495  .00005521  00000+0  14337-2 0  9999
2 34690  86.3800 277.1450 0011264  87.2775 285.8619 14.49536136800352
IRIDIUM 33 DEB          
1 34693U 97051KQ  24158.40980512  .00017096  00000+0  27036-2 0  9998
2 34693  86.3344 204.0199 0019243 196.7072 175.6583 14.72086268806374
IRIDIUM 33 DEB          
1 34696U 97051KT  24158.60493045  .00024346  00000+0  83180-2 0  9991
2 34696  86.1990 277.9221 0117233 212.3119 158.4094 14.32391936786518
IRIDIUM 33 DEB          
1 34702U 97051KZ  24158.28678966  .00028566  00000+0  35242-2 0  9994
2 34702  86.3020 160.6376 0031378  56.9701 303.4529 14.82389444811470
IRIDIUM 33 DEB          
1 34765U 97051LJ  24158.57478057  .00002359  00000+0  78001-3 0  9997
2 34765  86.3387 269.9317 0015566 235.5063 137.9715 14.37546781796434
IRIDIUM 33 DEB          
1 34773U 97051LS  24158.56475544  .00113785  00000+0  93549-2 0  9992
2 34773  86.3889 263.7872 0011671 167.8812 192.2702 14.98534274809188
IRIDIUM 33 DEB          
1 34774U 97051LT  24158.45135434  .01152644  00000+0  15200-1 0  9997
2 34774  86.4161 251.9658 0019589 287.1536  72.7581 15.55456889811919
IRIDIUM 33 DEB          
1 34775U 97051LU  24158.32065927  .00023553  00000+0  45085-2 0  9993
2 34775  86.3731 275.1835 0023670  53.2948  13.7068 14.63539684801188
IRIDIUM 33 DEB          
1 34825U 97051LZ  24158.48666756  .00173886  00000+0  99353-2 0  9995
2 34825  86.3531 235.1789 0012424 180.6009 234.7599 15.11833346804817
IRIDIUM 33 DEB          
1 34833U 97051MH  24158.37027788  .00005483  00000+0  15319-2 0  9995
2 34833  86.3938 288.6468 0022799 145.4132 278.6371 14.45918708796846
IRIDIUM 33 DEB          
1 34870U 97051MQ  24157.11598096  .00009036  00000+0  18363-2 0  9992
2 34870  86.3204 205.3175 0022003 312.8782  79.0159 14.60879742807530
IRIDIUM 33 DEB          
1 34896U 97051MY  24158.46861292  .00005423  00000+0  11922-2 0  9990
2 34896  86.3354 213.3951 0029243 311.4352 112.3411 14.57110479795209
IRIDIUM 33 DEB          
1 34898U 97051NA  24131.54996085  .00379784  00000+0  92641-2 0  9992
2 34898  86.3088 166.9276 0003477 190.8282 169.2898 15.39382995806220
IRIDIUM 33 DEB          
1 34926U 97051NF  24158.53619670  .00006936  00000+0  25339-2 0  9990
2 34926  86.1450 259.2968 0136983 313.4922  58.1467 14.27787725784724
IRIDIUM 33 DEB          
1 34928U 97051NH  24158.45959566  .00021180  00000+0  29654-2 0  9996
2 34928  86.3951 231.2557 0028033 137.0125 223.3292 14.77169699579441
IRIDIUM 33 DEB          
1 34985U 97051NR  24158.39188247  .00002974  00000+0  96403-3 0  9999
2 34985  86.3679 292.6230 0020609 249.4169 166.2883 14.38573626791956
IRIDIUM 33 DEB          
1 35051U 97051NX  24157.50532774  .00003732  00000+0  11141-2 0  9992
2 35051  86.3265 249.8746 0010889 126.7275 233.4927 14.42752749789753
IRIDIUM 33 DEB          
1 35052U 97051NY  24158.57921058  .00001166  00000+0  38562-3 0  9994
2 35052  86.3313 257.6800 0013839  99.5760 260.7001 14.37106172793129
IRIDIUM 33 DEB          
1 35079U 97051PE  24131.04651138  .00043094  00000+0  10916-1 0  9992
2 35079  86.4279  51.3330 0097939 158.6029 201.9314 14.47781946779201
IRIDIUM 33 DEB          
1 35080U 97051PF  24155.69521388  .00018092  00000+0  54740-2 0  9998
2 35080  86.2248 306.0141 0137182 263.3067  95.2502 14.36913951615762
IRIDIUM 33 DEB          
1 35294U 97051PJ  24158.39203767  .01849534  00000+0  20270-1 0  9997
2 35294  86.2504 191.6077 0015768 235.2093 182.2371 15.60072493798490
IRIDIUM 33 DEB          
1 35296U 97051PL  24129.50450933  .00031380  00000+0  44979-2 0  9993
2 35296  86.3027 215.3366 0010215 176.5463 183.5829 14.76360424626186
IRIDIUM 33 DEB          
1 35297U 97051PM  24151.17244299  .00003038  00000+0  94834-3 0  9993
2 35297  86.3892 301.4668 0015175 194.8894 165.1861 14.40484766623276
IRIDIUM 33 DEB          
1 35299U 97051PP  24158.55865414  .00007077  00000+0  24632-2 0  9997
2 35299  86.2898 273.0451 0060946 121.9865 251.7882 14.34256696783670
IRIDIUM 33 DEB          
1 35480U 97051QA  24158.02502594  .00004175  00000+0  11956-2 0  9999
2 35480  86.3588 264.3768 0015887 147.6083 212.6097 14.44765784790063
IRIDIUM 33 DEB          
1 35484U 97051QE  24157.51708539  .00013290  00000+0  24529-2 0  9991
2 35484  86.3739 244.9905 0036461 280.6069  79.1037 14.64956900537978
IRIDIUM 33 DEB          
1 35488U 97051QJ  24157.52284164  .00009721  00000+0  17209-2 0  9990
2 35488  86.3360 193.4456 0035777 169.5200 190.6768 14.66818419800799
IRIDIUM 33 DEB          
1 35616U 97051QN  24156.65756290  .00011179  00000+0  22005-2 0  9990
2 35616  86.3635 235.5386 0012409 319.0208  41.0070 14.62443196793916
IRIDIUM 33 DEB          
1 35618U 97051QQ  24157.49663921  .00002996  00000+0  79434-3 0  9999
2 35618  86.3446 235.4100 0032747  76.6123 283.8727 14.48111032573455
IRIDIUM 33 DEB          
1 35620U 97051QS  24157.78058021  .00010428  00000+0  44034-2 0  9999
2 35620  86.3877  87.8294 0187375 247.9426 110.1769 14.16509156765315
IRIDIUM 33 DEB          
1 35622U 97051QU  24157.80319819  .00019066  00000+0  39254-2 0  9994
2 35622  86.2167 166.0436 0026325  73.3241 101.5656 14.60212566791525
IRIDIUM 33 DEB          
1 35625U 97051QX  24157.58907741  .00009610  00000+0  40380-2 0  9995
2 35625  86.1939 265.3685 0119382 185.8096 187.5199 14.21973780581258
IRIDIUM 33 DEB          
1 35628U 97051RA  24158.52219884  .00009539  00000+0  22276-2 0  9991
2 35628  86.3616 253.6634 0016719  63.8166 296.4758 14.54540106783514
IRIDIUM 33 DEB          
1 35631U 97051RD  24158.52470049  .00002301  00000+0  65549-3 0  9998
2 35631  86.3679 259.0369 0019297 160.3307 213.2947 14.44794564791879
IRIDIUM 33 DEB          
1 35632U 97051RE  24158.33376209  .00024495  00000+0  59499-2 0  9995
2 35632  86.4232  14.3305 0091139 231.2857 128.0174 14.50223651777433
IRIDIUM 33 DEB          
1 35680U 97051RJ  24152.60453884  .00005445  00000+0  26645-2 0  9998
2 35680  86.1043 267.2150 0183971 251.1506 173.3823 14.09338072765640
IRIDIUM 33 DEB          
1 35744U 97051RX  24158.41287531  .00006865  00000+0  14469-2 0  9996
2 35744  86.3365 213.4990 0024826 302.8773  57.0047 14.59155286792126
IRIDIUM 33 DEB          
1 35749U 97051SC  24157.95626417  .00050789  00000+0  55668-2 0  9999
2 35749  86.3709 236.0302 0009354  97.9698 262.2589 14.87472384778440
IRIDIUM 33 DEB          
1 35797U 97051SF  24157.49257858  .00010233  00000+0  19850-2 0  9993
2 35797  86.3460 220.9345 0015967 295.1695  64.7860 14.63073300791656
IRIDIUM 33 DEB          
1 35805U 97051SP  24158.16326707  .00068071  00000+0  12263-1 0  9991
2 35805  86.3168 301.1929 0060300 167.2470 193.0285 14.64999565774695
IRIDIUM 33 DEB          
1 35806U 97051SQ  24155.57293825  .00006647  00000+0  18003-2 0  9998
2 35806  86.3462 264.0315 0018008 137.7681 222.4913 14.47488640782831
IRIDIUM 33 DEB          
1 35809U 97051ST  24158.46945197  .00009416  00000+0  19889-2 0  9998
2 35809  86.3361 224.3516 0017250   2.5333 357.5961 14.59176628786767
IRIDIUM 33 DEB          
1 35846U 97051SW  24158.64350238  .00003744  00000+0  12047-2 0  9992
2 35846  86.3754 294.4259 0018252 196.9780 163.0810 14.39013569633477
IRIDIUM 33 DEB          
1 35848U 97051SY  24158.02115982  .00011036  00000+0  22563-2 0  9998
2 35848  86.3958 261.9815 0010221 338.0144  22.0626 14.60738031585403
IRIDIUM 33 DEB          
1 35850U 97051TA  24157.96183419  .00009912  00000+0  20017-2 0  9995
2 35850  86.3576 233.0109 0012639 329.2145  30.8323 14.61275096632048
IRIDIUM 33 DEB          
1 35911U 97051TU  24158.24058033  .00029119  00000+0  70577-2 0  9995
2 35911  86.2267 239.0525 0071718 152.4982 208.0048 14.51248676789182
IRIDIUM 33 DEB          
1 35918U 97051UB  24157.70336281  .00006203  00000+0  18311-2 0  9993
2 35918  86.4027 312.4683 0027734 219.3056 153.9011 14.43200404771772
IRIDIUM 33 DEB          
1 35921U 97051UE  24157.89913898  .00052386  00000+0  99676-2 0  9998
2 35921  86.4186  24.0767 0072272 333.2851  26.4643 14.62148664786284
IRIDIUM 33 DEB          
1 35929U 97051UN  24157.90813050  .00013492  00000+0  22177-2 0  9994
2 35929  86.3489 208.2795 0024648 182.8447 177.2632 14.70324705796103
IRIDIUM 33 DEB          
1 36011U 97051US  24151.61064447  .00002610  00000+0  85731-3 0  9993
2 36011  86.3405 275.6813 0017710 267.8706 105.2011 14.37905123773735
IRIDIUM 33 DEB          
1 36012U 97051UT  24157.45801575  .00011717  00000+0  55942-2 0  9991
2 36012  86.4522 168.2556 0269923 206.5009 152.2158 14.01791091576530
IRIDIUM 33 DEB          
1 36019U 97051VA  24158.48338170  .00044479  00000+0  49769-2 0  9999
2 36019  86.3798 239.8064 0007227 195.9396 226.7555 14.86676116783404
IRIDIUM 33 DEB          
1 36028U 97051VK  24157.82597285  .00011992  00000+0  20546-2 0  9996
2 36028  86.3357 201.7201 0026631 197.2413 162.7900 14.68467968789076
IRIDIUM 33 DEB          
1 36080U 97051VM  24157.96553632  .00003683  00000+0  11172-2 0  9990
2 36080  86.3220 248.7170 0019159 196.5822 163.4754 14.41896686394051
IRIDIUM 33 DEB          
1 36083U 97051VQ  24132.14774431  .00004767  00000+0  15329-2 0  9990
2 36083  86.3413 283.2062 0027132 346.1787  13.8666 14.38985129770869
IRIDIUM 33 DEB          
1 36390U 97051VU  24150.85220965  .00004042  00000+0  82691-3 0  9990
2 36390  86.3013 194.0501 0038073 302.9155  56.8394 14.60162722580212
